[Satellite]
VERSION=1.1
NAME=FLOCK 3P-35
NICKNAME=FLOCK 3P-35
TLE1=1 41989U 17008AT  18020.73851376  .00001231  00000-0  54074-4 0  9999
TLE2=2 41989  97.4699  86.3965 0009011 142.5204 217.6662 15.23809716 50976
